[{"OBJECT_NAME":"OBJECT N","OBJECT_ID":"2024-205N","EPOCH":"2026-03-09T22:36:13.267872","MEAN_MOTION":15.33862123,"ECCENTRICITY":0.00094432,"INCLINATION":97.4211,"RA_OF_ASC_NODE":148.9295,"ARG_OF_PERICENTER":39.7652,"MEAN_ANOMALY":320.4281,"EPHEMERIS_TYPE":0,"CLASSIFICATION_TYPE":"U","NORAD_CAT_ID":61906,"ELEMENT_SET_NO":999,"REV_AT_EPOCH":7364,"BSTAR":0.00078005624,"MEAN_MOTION_DOT":0.00025559,"MEAN_MOTION_DDOT":0},{"OBJECT_NAME":"STARLINK-34769","OBJECT_ID":"2025-167S","EPOCH":"2026-03-09T06:25:26.868576","MEAN_MOTION":15.30202216,"ECCENTRICITY":0.00011525,"INCLINATION":53.1615,"RA_OF_ASC_NODE":28.7328,"ARG_OF_PERICENTER":76.7668,"MEAN_ANOMALY":283.3461,"EPHEMERIS_TYPE":0,"CLASSIFICATION_TYPE":"U","NORAD_CAT_ID":65094,"ELEMENT_SET_NO":999,"REV_AT_EPOCH":3341,"BSTAR":0.00067167369,"MEAN_MOTION_DOT":0.00019588,"MEAN_MOTION_DDOT":0}]
